OBJECT_NAME,OBJECT_ID,EPOCH,MEAN_MOTION,ECCENTRICITY,INCLINATION,RA_OF_ASC_NODE,ARG_OF_PERICENTER,MEAN_ANOMALY,EPHEMERIS_TYPE,CLASSIFICATION_TYPE,NORAD_CAT_ID,ELEMENT_SET_NO,REV_AT_EPOCH,BSTAR,MEAN_MOTION_DOT,MEAN_MOTION_DDOT
ONEWEB-0068,2020-020Y,2026-07-02T11:44:08.513952,13.11415605,.00016629,87.8884,18.0179,85.8548,274.2770,0,U,45446,999,30460,-.16700685E-2,-.579E-5,0
ONEWEB-0046,2020-020Z,2026-07-02T11:32:07.867968,13.11414987,.00018018,87.8876,18.0245,79.7596,280.3735,0,U,45447,999,30461,-.93235442E-3,-.318E-5,0
ONEWEB-0063,2020-020AA,2026-07-02T12:13:50.475936,13.11417785,.00020597,87.8888,18.0187,82.4308,277.7054,0,U,45448,999,30470,-.84618437E-4,-.17E-6,0
ONEWEB-0019,2020-020AB,2026-07-02T13:09:35.985888,13.11414219,.00018605,87.8879,17.9965,93.2131,266.9210,0,U,45449,999,30455,.15866257E-3,.69E-6,0
ONEWEB-0094,2020-020AC,2026-07-02T11:11:12.509664,13.17648145,.00016804,87.9143,2.8104,94.9085,265.2239,0,U,45450,999,30832,.13960726E-3,.67E-6,0
ONEWEB-0087,2020-020AD,2026-07-02T12:28:05.916288,13.11417202,.00015259,87.8897,17.9919,85.1812,274.9491,0,U,45451,999,30459,.75688272E-3,.281E-5,0
ONEWEB-0082,2020-020AE,2026-07-02T10:33:20.992320,13.11417960,.00015225,87.8891,18.0233,75.6064,284.5233,0,U,45452,999,30467,.7060667E-3,.263E-5,0
ONEWEB-0050,2020-020AF,2026-07-02T14:02:19.708512,14.90437984,.00004554,88.9283,231.1199,306.8996,53.2191,0,U,45453,999,34267,.22000677E-3,.2164E-4,0
ONEWEB-0034,2020-020AG,2026-07-02T11:27:27.509472,13.11414179,.00018378,87.8884,18.0253,87.9280,272.2058,0,U,45454,999,30459,-.60340896E-3,-.201E-5,0
ONEWEB-0060,2020-020AH,2026-07-02T12:12:25.413408,13.11417791,.00008277,87.8880,18.0158,89.8596,270.2627,0,U,45455,999,30455,-.28284863E-3,-.88E-6,0
ONEWEB-0086,2020-020AJ,2026-07-02T11:41:42.036576,13.11415665,.00013711,87.8886,18.0165,110.9636,249.1638,0,U,45456,999,30461,-.15114841E-2,-.523E-5,0
ONEWEB-0088,2020-020AK,2026-07-02T13:00:01.768896,13.11414493,.00019819,87.8893,17.9797,76.4938,283.6411,0,U,45457,999,30455,.8795668E-3,.324E-5,0
ONEWEB-0102,2020-100A,2026-07-02T10:59:00.045888,13.12442063,.00018115,87.8948,347.6374,103.5506,256.5825,0,U,47258,999,26673,.62479358E-3,.237E-5,0
ONEWEB-0109,2020-100B,2026-07-02T11:11:11.700096,13.12441785,.00019332,87.8957,347.6204,97.3002,262.8346,0,U,47259,999,26656,-.21349376E-3,-.64E-6,0
ONEWEB-0110,2020-100C,2026-07-02T10:00:27.207648,13.12443329,.00016014,87.8958,347.6146,100.9610,259.1699,0,U,47260,999,26672,-.94477844E-3,-.327E-5,0
ONEWEB-0111,2020-100D,2026-07-02T10:44:22.043904,13.12442387,.00016902,87.8961,347.6271,92.0799,268.0523,0,U,47261,999,26656,.1242904E-2,.46E-5,0
ONEWEB-0114,2020-100E,2026-07-02T11:28:15.314592,13.12441847,.00020238,87.8959,347.6185,96.8183,263.3176,0,U,47262,999,26652,-.10802405E-2,-.376E-5,0
ONEWEB-0117,2020-100F,2026-07-02T11:16:03.621504,13.12441311,.00017958,87.8957,347.6109,95.1389,264.9945,0,U,47263,999,26653,-.45044978E-3,-.149E-5,0
ONEWEB-0118,2020-100G,2026-07-02T10:15:04.343040,13.12442808,.00020923,87.8959,347.6221,88.0582,272.0786,0,U,47264,999,26672,.71155063E-4,.38E-6,0
ONEWEB-0119,2020-100H,2026-07-02T10:51:40.735584,13.12441461,.00018164,87.8949,347.6319,91.9369,268.1967,0,U,47265,999,26670,.11221104E-2,.416E-5,0
ONEWEB-0120,2020-100J,2026-07-02T11:26:00.659328,13.12441341,.00020053,87.8948,347.6287,97.2733,262.8623,0,U,47266,999,26673,-.83527793E-3,-.288E-5,0
ONEWEB-0121,2020-100K,2026-07-02T11:08:44.500416,13.12441198,.00015358,87.8957,347.6186,89.6797,270.4508,0,U,47267,999,26664,.88625553E-4,.45E-6,0
ONEWEB-0122,2020-100L,2026-07-02T11:00:12.894048,13.12442937,.00018569,87.8959,347.6247,99.2457,260.8882,0,U,47268,999,26655,.68979958E-3,.261E-5,0
ONEWEB-0123,2020-100M,2026-07-02T10:54:06.733440,13.12441549,.00019141,87.8946,347.6305,93.3879,266.7469,0,U,47269,999,26669,.92440012E-3,.345E-5,0
ONEWEB-0124,2020-100N,2026-07-02T10:39:28.677024,13.12442288,.00017413,87.8947,347.6358,93.0819,267.0509,0,U,47270,999,26657,.13657376E-2,.504E-5,0
ONEWEB-0125,2020-100P,2026-07-02T10:07:45.314400,13.12443138,.0001744,87.8958,347.6254,83.9463,276.1864,0,U,47271,999,26663,-.31704561E-3,-.101E-5,0
ONEWEB-0126,2020-100Q,2026-07-02T10:37:15.052512,13.12442866,.00019641,87.8950,347.6359,95.5556,264.5796,0,U,47272,999,26670,.10294645E-2,.383E-5,0
ONEWEB-0127,2020-100R,2026-07-02T09:48:14.305824,13.12442563,.0001942,87.8947,347.6406,96.7324,263.4025,0,U,47273,999,26672,-.10697608E-2,-.372E-5,0
ONEWEB-0128,2020-100S,2026-07-02T10:19:57.639072,13.12442974,.00015662,87.8947,347.6502,100.4642,259.6663,0,U,47274,999,26674,.48226138E-3,.186E-5,0
ONEWEB-0129,2020-100T,2026-07-02T09:50:40.116192,13.12442246,.00028658,87.8956,347.6296,104.8622,255.2824,0,U,47275,999,26667,-.13698347E-2,-.48E-5,0
