ONEWEB-0068             
1 45446U 20020Y   26183.48898743 -.00000579  00000+0 -16701-2 0  9997
2 45446  87.8884  18.0179 0001662  85.8548 274.2770 13.11415605304606
ONEWEB-0046             
1 45447U 20020Z   26183.48064662 -.00000318  00000+0 -93235-3 0  9992
2 45447  87.8876  18.0245 0001801  79.7596 280.3735 13.11414987304614
ONEWEB-0063             
1 45448U 20020AA  26183.50961199 -.00000017  00000+0 -84618-4 0  9999
2 45448  87.8888  18.0187 0002059  82.4308 277.7054 13.11417785304704
ONEWEB-0019             
1 45449U 20020AB  26183.54833317  .00000069  00000+0  15866-3 0  9997
2 45449  87.8879  17.9965 0001860  93.2131 266.9210 13.11414219304556
ONEWEB-0094             
1 45450U 20020AC  26183.46611701  .00000067  00000+0  13961-3 0  9993
2 45450  87.9143   2.8104 0001680  94.9085 265.2239 13.17648145308322
ONEWEB-0087             
1 45451U 20020AD  26183.51951292  .00000281  00000+0  75688-3 0  9994
2 45451  87.8897  17.9919 0001525  85.1812 274.9491 13.11417202304591
ONEWEB-0082             
1 45452U 20020AE  26183.43982630  .00000263  00000+0  70607-3 0  9992
2 45452  87.8891  18.0233 0001522  75.6064 284.5233 13.11417960304678
ONEWEB-0050             
1 45453U 20020AF  26183.58495033  .00002164  00000+0  22001-3 0  9992
2 45453  88.9283 231.1199 0000455 306.8996  53.2191 14.90437984342674
ONEWEB-0034             
1 45454U 20020AG  26183.47740173 -.00000201  00000+0 -60341-3 0  9990
2 45454  87.8884  18.0253 0001837  87.9280 272.2058 13.11414179304598
ONEWEB-0060             
1 45455U 20020AH  26183.50862747 -.00000088  00000+0 -28285-3 0  9991
2 45455  87.8880  18.0158 0000827  89.8596 270.2627 13.11417791304557
ONEWEB-0086             
1 45456U 20020AJ  26183.48729209 -.00000523  00000+0 -15115-2 0  9995
2 45456  87.8886  18.0165 0001371 110.9636 249.1638 13.11415665304610
ONEWEB-0088             
1 45457U 20020AK  26183.54168714  .00000324  00000+0  87957-3 0  9992
2 45457  87.8893  17.9797 0001981  76.4938 283.6411 13.11414493304559
ONEWEB-0102             
1 47258U 20100A   26183.45763942  .00000237  00000+0  62479-3 0  9991
2 47258  87.8948 347.6374 0001811 103.5506 256.5825 13.12442063266730
ONEWEB-0109             
1 47259U 20100B   26183.46610764 -.00000064  00000+0 -21349-3 0  9997
2 47259  87.8957 347.6204 0001933  97.3002 262.8346 13.12441785266568
ONEWEB-0110             
1 47260U 20100C   26183.41698157 -.00000327  00000+0 -94478-3 0  9991
2 47260  87.8958 347.6146 0001601 100.9610 259.1699 13.12443329266728
ONEWEB-0111             
1 47261U 20100D   26183.44747736  .00000460  00000+0  12429-2 0  9994
2 47261  87.8961 347.6271 0001690  92.0799 268.0523 13.12442387266569
ONEWEB-0114             
1 47262U 20100E   26183.47795503 -.00000376  00000+0 -10802-2 0  9994
2 47262  87.8959 347.6185 0002023  96.8183 263.3176 13.12441847266529
ONEWEB-0117             
1 47263U 20100F   26183.46948636 -.00000149  00000+0 -45045-3 0  9997
2 47263  87.8957 347.6109 0001795  95.1389 264.9945 13.12441311266537
ONEWEB-0118             
1 47264U 20100G   26183.42713360  .00000038  00000+0  71155-4 0  9995
2 47264  87.8959 347.6221 0002092  88.0582 272.0786 13.12442808266728
ONEWEB-0119             
1 47265U 20100H   26183.45255481  .00000416  00000+0  11221-2 0  9990
2 47265  87.8949 347.6319 0001816  91.9369 268.1967 13.12441461266704
ONEWEB-0120             
1 47266U 20100J   26183.47639652 -.00000288  00000+0 -83528-3 0  9998
2 47266  87.8948 347.6287 0002005  97.2733 262.8623 13.12441341266733
ONEWEB-0121             
1 47267U 20100K   26183.46440394  .00000045  00000+0  88626-4 0  9995
2 47267  87.8957 347.6186 0001535  89.6797 270.4508 13.12441198266641
ONEWEB-0122             
1 47268U 20100L   26183.45848257  .00000261  00000+0  68980-3 0  9995
2 47268  87.8959 347.6247 0001856  99.2457 260.8882 13.12442937266558
ONEWEB-0123             
1 47269U 20100M   26183.45424460  .00000345  00000+0  92440-3 0  9993
2 47269  87.8946 347.6305 0001914  93.3879 266.7469 13.12441549266697
ONEWEB-0124             
1 47270U 20100N   26183.44408191  .00000504  00000+0  13657-2 0  9996
2 47270  87.8947 347.6358 0001741  93.0819 267.0509 13.12442288266574
ONEWEB-0125             
1 47271U 20100P   26183.42205225 -.00000101  00000+0 -31705-3 0  9998
2 47271  87.8958 347.6254 0001744  83.9463 276.1864 13.12443138266635
ONEWEB-0126             
1 47272U 20100Q   26183.44253533  .00000383  00000+0  10295-2 0  9996
2 47272  87.8950 347.6359 0001964  95.5556 264.5796 13.12442866266700
ONEWEB-0127             
1 47273U 20100R   26183.40849891 -.00000372  00000+0 -10698-2 0  9998
2 47273  87.8947 347.6406 0001942  96.7324 263.4025 13.12442563266721
ONEWEB-0128             
1 47274U 20100S   26183.43052823  .00000186  00000+0  48226-3 0  9993
2 47274  87.8947 347.6502 0001566 100.4642 259.6663 13.12442974266740
ONEWEB-0129             
1 47275U 20100T   26183.41018653 -.00000480  00000+0 -13698-2 0  9998
2 47275  87.8956 347.6296 0002865 104.8622 255.2824 13.12442246266675
